ONEWEB-0010             
1 44058U 19010B   22259.20477841 -.00087651  00000+0 -23181+0 0  9997
2 44058  87.9096 141.5099 0000925  32.3654 327.7533 13.16508667171349